[{"OBJECT_NAME":"JILIN-1 07","OBJECT_ID":"2018-008E","EPOCH":"2026-03-09T22:24:26.445888","MEAN_MOTION":15.32987507,"ECCENTRICITY":0.00101791,"INCLINATION":97.1876,"RA_OF_ASC_NODE":91.5817,"ARG_OF_PERICENTER":62.7832,"MEAN_ANOMALY":297.4447,"EPHEMERIS_TYPE":0,"CLASSIFICATION_TYPE":"U","NORAD_CAT_ID":43159,"ELEMENT_SET_NO":999,"REV_AT_EPOCH":44978,"BSTAR":0.00036439521,"MEAN_MOTION_DOT":0.00011559,"MEAN_MOTION_DDOT":0},{"OBJECT_NAME":"STARLINK-31772","OBJECT_ID":"2024-065K","EPOCH":"2026-03-09T21:26:47.498784","MEAN_MOTION":15.30186823,"ECCENTRICITY":0.0001166,"INCLINATION":53.1596,"RA_OF_ASC_NODE":280.5107,"ARG_OF_PERICENTER":95.1136,"MEAN_ANOMALY":264.9998,"EPHEMERIS_TYPE":0,"CLASSIFICATION_TYPE":"U","NORAD_CAT_ID":59430,"ELEMENT_SET_NO":999,"REV_AT_EPOCH":10896,"BSTAR":9.794072e-6,"MEAN_MOTION_DOT":-6.9e-7,"MEAN_MOTION_DDOT":0}]
